{
  "type" : "FeatureCollection",
  "features" : [{"type":"Feature","id":1,"geometry":{"type":"Polygon","coordinates":[[[5.5154018762103583,60.430742747538744],[5.5154014172134591,60.430744146514385],[5.5144422104532342,60.434167874398319],[5.5136345302420064,60.437050455865702],[5.5125079927208462,60.437379709662977],[5.5056790617943419,60.439375265612107],[5.4956361241468334,60.442308879079157],[5.4913077755348212,60.443572862462652],[5.4796077615137513,60.453015277095602],[5.4600540050809645,60.459138642345785],[5.4509477003086939,60.465281480827279],[5.441837932237128,60.471423662719168],[5.4288017822563335,60.480207966677419],[5.4157585375332458,60.488990925031487],[5.4071920943292984,60.494756024824866],[5.3986225896777169,60.500520543749928],[5.3900500220421694,60.506284481423876],[5.3814743898856765,60.512047837463676],[5.381470837250828,60.512050104836518],[5.3582347492175693,60.518916757844366],[5.3349889098573131,60.525779270110363],[5.3349821931230705,60.525781251635571],[5.3262087862592287,60.530937190475932],[5.3174325776804796,60.536092524526865],[5.2916985104868575,60.533337591735943],[5.2876417179250517,60.532902803480503],[5.2876407537619858,60.532902462053912],[5.2806805573666518,60.530429253852873],[5.2806517460144642,60.530419012621778],[5.280620113310218,60.530407766903835],[5.2806160472986612,60.530406323237422],[5.2806102117561613,60.530404245980364],[5.2614625278593703,60.523596560558765],[5.2624682034973738,60.516198112056671],[5.262668673706969,60.514722789637617],[5.2499495444256121,60.505053547425511],[5.2372379365459123,60.495383149667923],[5.2399260873255651,60.484523722028541],[5.2426123072845758,60.473664209990154],[5.2431990357747038,60.471291194546382],[5.2478394762675524,60.463515457032322],[5.2524776327944123,60.455739530738711],[5.2571135071742061,60.447963415816666],[5.2617471012240751,60.440187112417014],[5.2663784167593777,60.432410620690533],[5.2710074555936952,60.424633940787849],[5.2756342195388388,60.416857072859408],[5.2802587104048451,60.409080017055544],[5.2602827302315402,60.402345758781308],[5.2602796167006192,60.402344709465581],[5.2480369512456546,60.40284660500766],[5.2363649072640932,60.403324049906601],[5.2197969466411926,60.397939594854165],[5.2032345079422626,60.392553123913295],[5.1866775903820779,60.387164638449576],[5.1701261931724822,60.381774139828302],[5.1687859063102044,60.37875926084687],[5.1660344084252667,60.372568248483567],[5.1672948611687097,60.370232993884215],[5.1692833426127009,60.36654933579873],[5.1707770058883673,60.350704788015214],[5.1717169483766332,60.340724573410995],[5.171717184231615,60.340722099232011],[5.1820722459131128,60.337992716525747],[5.1912703520220882,60.335567216964378],[5.2018394037067965,60.322977358672325],[5.2031632225949886,60.321399727162273],[5.2008517916529122,60.315753960829504],[5.2008443242943647,60.31573574235172],[5.2008230118528154,60.315683715891659],[5.1973833451441367,60.307278665498878],[5.197143933687852,60.306693476453965],[5.1900470666532241,60.289337878341705],[5.1876727315770079,60.274446746647847],[5.1611379225398535,60.275389400614934],[5.1510068684760313,60.268332102620491],[5.1445788884165742,60.263852371680031],[5.151883970442622,60.257113695916914],[5.152748850926117,60.256315543620524],[5.1555355685764521,60.25374366095847],[5.1555362232423319,60.253743014740685],[5.1790070144037941,60.25225062321821],[5.2024758196124488,60.250754058316048],[5.2205586152583177,60.258767503501375],[5.2329489874983581,60.255300470693449],[5.2329510067384488,60.255299898844676],[5.2272045573800776,60.248188160408084],[5.2272083315999227,60.248048311848216],[5.2274779033864744,60.238121515684789],[5.2274779604239479,60.238119449877551],[5.2356162801663144,60.231885523315391],[5.238022079854364,60.230042154712031],[5.2380227380948119,60.230041616092706],[5.2317001000500003,60.223903895926675],[5.2205589294878587,60.213082347155932],[5.2094250057739204,60.202259916941408],[5.2100769531237763,60.188795547901933],[5.2100769647096232,60.188795134741468],[5.2316546956008407,60.182444592073779],[5.2532241704588909,60.17609045279498],[5.2701012150115583,60.18429954910242],[5.2869866982046299,60.192506563651065],[5.3038806249001542,60.200711494288889],[5.3207829999599836,60.20891433886235],[5.3229004080777775,60.214025714782856],[5.3231424741313198,60.214609997158803],[5.3231428049576577,60.214610752372735],[5.3231766843244577,60.214692542771843],[5.3233607095584974,60.215136685419623],[5.3234036760115728,60.215240398804092],[5.3234701910883944,60.215400915815948],[5.3236004755159101,60.215715356958327],[5.3236097457261584,60.21573773450185],[5.3236516212552276,60.215838783915395],[5.3237187783342836,60.216000846580648],[5.3237575380366291,60.216094403096839],[5.3239200654577115,60.216486615711553],[5.3239217866484019,60.216490762149981],[5.3241563958284726,60.217056939189142],[5.3241585588872518,60.217062140529343],[5.3243813446995283,60.217599765593533],[5.3243950801151634,60.217632927096709],[5.3246031278835471,60.218134953434351],[5.3246288822538386,60.218197094125351],[5.3247648899311235,60.218525300723279],[5.3247884686471663,60.218582194752742],[5.3247909028066971,60.218588041769557],[5.3248064593830504,60.218625595091758],[5.3325573811919806,60.222498540402178],[5.3366813058271552,60.221165503274072],[5.3366831240457913,60.221165400737711],[5.3422991117927667,60.220853298078197],[5.3423002298349713,60.220855423200796],[5.3428132431922464,60.221826498201665],[5.3441640630846798,60.224383183081706],[5.3493371222416561,60.224660619785681],[5.3653089953594924,60.221576311618044],[5.3653084297976745,60.221578480221609],[5.3651818089940742,60.222373207180112],[5.3651809319510777,60.222378674872047],[5.3647762365812541,60.224914280321109],[5.3661562167991388,60.225046025071549],[5.3688708474365701,60.225305154903872],[5.3689062341995824,60.225318150549235],[5.3689287381295587,60.225326407017796],[5.369508684395746,60.225513419948598],[5.3715873342884981,60.22620627181788],[5.3717812185333846,60.226256475344165],[5.3729042237338911,60.22683570347867],[5.373111943608877,60.226842232979969],[5.3731224250140812,60.226851049508014],[5.3731835488844908,60.226901931977615],[5.3731829388491832,60.226902382664271],[5.3731471593886395,60.226924763577564],[5.3731472157672089,60.226925070715346],[5.3731537408618895,60.226964590134465],[5.3731910588064826,60.227024033919264],[5.3732251155968429,60.227047777651428],[5.3732833562681996,60.227067877863931],[5.3732844634064048,60.227068977742512],[5.3732996806899971,60.227083990807181],[5.3733408256934583,60.227124358692038],[5.3734953881590055,60.227284099905653],[5.3735351428959195,60.227331323539573],[5.3735358784738319,60.227332188546747],[5.3735580704012014,60.227354888482772],[5.3735753052442714,60.227372248677199],[5.3735729099773826,60.227395048823865],[5.3736015921305116,60.227406286768733],[5.3736520547498889,60.227420745177014],[5.3736985773870751,60.227433738562006],[5.3737148525700942,60.227440169933253],[5.3737724544407177,60.227467362007133],[5.3738695983665528,60.227507760849399],[5.3739715399396566,60.227560173119677],[5.3740770332463228,60.227609231051183],[5.3741815526371663,60.227657947665968],[5.3742722164180172,60.227700577718011],[5.374347280136166,60.227738188038252],[5.3743614756963156,60.227743654638225],[5.3744032384250069,60.227759825162877],[5.3744572217185684,60.227772195454435],[5.3744991466729974,60.227786572769148],[5.3745173355317917,60.227792696860782],[5.3746351638645065,60.227750314468899],[5.3746373950234378,60.227751382164669],[5.3749413104398478,60.227891298517243],[5.3776130909342985,60.229503311858601],[5.3812483843743744,60.231539035801667],[5.3819910627386918,60.232059871971245],[5.3820163188370591,60.233265048238763],[5.3834799116934473,60.234089320252103],[5.3846814819915227,60.234405022750451],[5.3855597030806655,60.236299513809719],[5.3868155173458359,60.237965567529535],[5.386902167211189,60.238072387866431],[5.3870205230040682,60.23807443621083],[5.3871040705094693,60.238090851359907],[5.3871528885747892,60.238105996395142],[5.3871584840148561,60.238109842960739],[5.3872115605434905,60.238141947555185],[5.3872617558535589,60.238156734609603],[5.3873016203987047,60.238172588308828],[5.3873723961479278,60.238205166188365],[5.3874609502183901,60.238240942883458],[5.3874919964784365,60.238260214332335],[5.3875190991577666,60.238275576382414],[5.3875262628649114,60.238279627451334],[5.3875603523024651,60.238297858310148],[5.3875819931196629,60.238307669718331],[5.3876154658366406,60.238329200329822],[5.3876916941704804,60.23837529176992],[5.3877171386339322,60.238395695801046],[5.3877287840176136,60.238417800046719],[5.3877547986144885,60.238467637340932],[5.3877736042883377,60.238499401057283],[5.3877734084028273,60.238522171320589],[5.3877729146249491,60.238522715122095],[5.3877448435932562,60.238582394550143],[5.3877445811448252,60.238582971618996],[5.3877413941654995,60.238594173710503],[5.3877490928234062,60.238622237311645],[5.3877669409677411,60.238634479956218],[5.3877808231556727,60.238646623520324],[5.3878069759846543,60.238664539177698],[5.3878368892000132,60.238679663155125],[5.3878598771714445,60.238684963289082],[5.3878892493156902,60.238695156073391],[5.3879205566177184,60.238701240133423],[5.3879594384884237,60.238698299891702],[5.3880302717606465,60.238675261195951],[5.3880405607277169,60.238675559509474],[5.3880650920081772,60.238681782481045],[5.3881383814596546,60.238708298587447],[5.388224673762382,60.238750511431604],[5.3882858487696792,60.238771807920905],[5.3883111035510147,60.238783605140426],[5.3883167947869151,60.23878773289016],[5.388336936807046,60.23879589447882],[5.3884132975573387,60.238833585290784],[5.388493585014972,60.238876982553833],[5.3885559223886723,60.238911028595716],[5.3885802624773751,60.238930800160865],[5.3886451618898352,60.238977687898668],[5.3886657200316881,60.239000448291165],[5.3886900547787642,60.239037494621073],[5.388696576418428,60.239043766141556],[5.3887151827615076,60.239068819223036],[5.3887252540881994,60.239087006656767],[5.3887308841807124,60.239108587413568],[5.3887469330876128,60.239172434926068],[5.3887695956217136,60.239227447632224],[5.3887860856835665,60.239246115501246],[5.3888398613704522,60.239293724741998],[5.3888767306060066,60.239312336541161],[5.3889442869817143,60.239345949308515],[5.3890223519112617,60.239390175485013],[5.3890920025646292,60.239437596850188],[5.3891455215778503,60.239478682663893],[5.3892067762992006,60.23952683699229],[5.3892760180050496,60.239577482789578],[5.3893089885604493,60.239593912044192],[5.3893184344179179,60.239593333430292],[5.38934588120875,60.239615598233073],[5.3893756761594558,60.239635419332849],[5.3893982501076527,60.239650720532076],[5.3894429568983995,60.239682209703517],[5.389513248039056,60.239731212178093],[5.3895461971548508,60.239761293546778],[5.3896106443526408,60.239809687407572],[5.3896572333384549,60.239845919490271],[5.3896854447839573,60.239876015604004],[5.38972793143407,60.239927334633713],[5.3897550202839417,60.239949571617039],[5.3898059349431868,60.239990190736236],[5.3898477321404501,60.240037104805459],[5.3898876180546074,60.240075113640046],[5.3899564900738497,60.240114693742292],[5.3899959917827562,60.240133053317365],[5.390014573445252,60.240146528979956],[5.3900343418834211,60.240163344536676],[5.3900474890685031,60.240185291693656],[5.3900497145418997,60.240188884574415],[5.3900658453787944,60.240227235165747],[5.3900868167567291,60.240285482153283],[5.390084594209978,60.240304673908774],[5.3900884639314937,60.240324849463754],[5.3900999178950491,60.240335910990687],[5.3901306995735681,60.240360405558334],[5.3901597504775181,60.240388304378129],[5.3901839156658768,60.240422811148925],[5.3901890270549684,60.24046831271211],[5.3901956313977948,60.240530293959424],[5.3901964933337947,60.240561200161473],[5.3902023100048213,60.240577815552513],[5.3902116086745737,60.240602372268981],[5.3902277499312774,60.240660982043757],[5.3902324226437335,60.240697501644505],[5.3902382080376281,60.240723427738246],[5.3902635625512971,60.24078226140562],[5.3902903419356205,60.240822744437423],[5.3903251057313923,60.240838664976273],[5.3903559734885427,60.240843181523829],[5.3904744534817102,60.240861426330568],[5.3905587307661245,60.240880977835936],[5.3905948988618819,60.240896460170667],[5.3906367110058975,60.240919951657695],[5.3906570596589569,60.240939712986297],[5.3906786129187054,60.240972665519664],[5.3907209161448488,60.241028302398973],[5.3907555267630665,60.241053988587772],[5.3907803667255916,60.241073350864731],[5.3908140799278224,60.241108827485633],[5.3908528685085697,60.241159775771145],[5.3909204341911945,60.24120993455265],[5.3909475627552341,60.241230185991647],[5.3909721412235179,60.241239941941004],[5.3910476323485996,60.241325495375108],[5.3911146399822147,60.241379413807209],[5.3911705266731742,60.241424823447211],[5.3912429889655931,60.241468284467715],[5.3913041264069363,60.2414824329597],[5.3913499013561088,60.241483247528272],[5.3913535943586677,60.241483366026891],[5.391429556227239,60.241484543857609],[5.3914887240011025,60.241499177928581],[5.3914943185614268,60.241500579534744],[5.3919113809123926,60.241483870285258],[5.391912398165708,60.241483826066478],[5.3921011057351738,60.241542880593833],[5.3921020494500436,60.241543175915524],[5.39236128104318,60.241585319468946],[5.3923769447095813,60.241587875859516],[5.3923798874248901,60.241588405335399],[5.3925956001866062,60.241651941977217],[5.3925964587196376,60.241652190037541],[5.3926551793659616,60.241673848991304],[5.3927088472483042,60.241694768240691],[5.3927373811103383,60.241706536920795],[5.3927623529669466,60.241719296220992],[5.3927893613360425,60.241731949143549],[5.3928554827616804,60.241767345259788],[5.3929090165972173,60.241791784061782],[5.3929341141305596,60.241805373640155],[5.3929591120589446,60.241819868288864],[5.3929858338121486,60.241833484071506],[5.3930394655212668,60.241860648835946],[5.3930716425938012,60.241876111748638],[5.3931036853761665,60.241893287702439],[5.3931930837448547,60.241942232631786],[5.3932645378265223,60.241979283584662],[5.3933003034166589,60.241999266145825],[5.3933377211499822,60.242020992368928],[5.3934089498942619,60.242066171222191],[5.3934248719841058,60.242075745131451],[5.3934447166835522,60.242087951367886],[5.3934790903166583,60.242108920638948],[5.393509338826199,60.242123513067988],[5.3935196331582791,60.242128700537677],[5.3936055249508694,60.242168615731856],[5.3936591478586955,60.242195869865427],[5.3937038346750636,60.24221758698561],[5.3937485126749323,60.242239384741509],[5.3937949404527679,60.242260232411979],[5.3938416101187583,60.242280196835523],[5.3938900842367143,60.242298385765018],[5.3939796463620651,60.242335677178282],[5.3940689668037809,60.242372045180858],[5.3941138333279737,60.242391969447141],[5.3941585118389579,60.24241376706901],[5.3942299210696412,60.242449108527047],[5.3943104299409361,60.242488175768671],[5.3943478307960735,60.242508094642609],[5.3943817771067497,60.24252802741011],[5.3944512584998874,60.242570542634688],[5.394485221976657,60.242590484828035],[5.3945496701446558,60.242628467999744],[5.3945817145277122,60.242647450191896],[5.3946616855215126,60.242698150978498],[5.3947029822227224,60.242723415670923],[5.3947169161875737,60.242733483612888],[5.3947277120372679,60.242740688935676],[5.3947384264368585,60.242750606407995],[5.3947383458674194,60.242751503013515],[5.3947457133046335,60.242752404420536],[5.3947599186542927,60.242756062330464],[5.3947831500602481,60.242766086489475],[5.3948118839818973,60.242779666712011],[5.3948441713497601,60.242795950065066],[5.3949136076674868,60.242833133936372],[5.3949512700962652,60.242852160941766],[5.3949779935175091,60.242865776336082],[5.3950568082626829,60.242903826321637],[5.3951336769246581,60.242939189869077],[5.3952105802752879,60.242971938814854],[5.3952874481473465,60.24300550465302],[5.3953646296528079,60.243037371258112],[5.3954684462527522,60.243081853038454],[5.3955507530639792,60.243115449742639],[5.3955918715340401,60.243130840508805],[5.3956726885427955,60.243162697905184],[5.3957155827625716,60.243178217798125],[5.3957622193763335,60.243192751872016],[5.3958088461751217,60.243207375541473],[5.3958573859414001,60.243221044545813],[5.3959039669165056,60.24323575681413],[5.3959594985569117,60.24325472999719],[5.3960026528391944,60.243269367054033],[5.3960475398304979,60.243283044545436],[5.3960922646313296,60.243296717612111],[5.3961838421474075,60.243322305972121],[5.3962269964389424,60.243335136373204],[5.3963095019500615,60.243362500338542],[5.3963901504409062,60.243390640666995],[5.3964313577123058,60.243402600173184],[5.3965445263217902,60.243432756787172],[5.3965841092408109,60.243442883491838],[5.3967064148272641,60.243470349235423],[5.3967510948238289,60.243480488586059],[5.3968356908151627,60.243497069550962],[5.3968770073310219,60.243504421061758],[5.3969221993673173,60.24350908262894],[5.3969581128033246,60.243513779638022],[5.3969978214593759,60.243518489896267],[5.39703739676201,60.243523097650986],[5.3970790072835877,60.243525145207165],[5.3971169300629311,60.243521762680025],[5.397154862223557,60.243514677360793],[5.3971929993709695,60.243506878565256],[5.3972292803399817,60.243499847222566],[5.397265461541684,60.243491914364007],[5.3972999110665159,60.24348493210249],[5.3973362907578979,60.243478811197093],[5.3973778195423998,60.243475517596082],[5.3974103499064618,60.243473821999956],[5.397448209386333,60.243473152020819],[5.3974861784753649,60.243473293924765],[5.3976575319849216,60.243481374282815],[5.397747691531495,60.243487149513804],[5.3978288777164289,60.243495610951371],[5.3979120294371601,60.243502310174534],[5.3979551311717104,60.243506087704091],[5.3980002150175377,60.243511734635625],[5.3980831515653795,60.243522858962237],[5.3981245026995799,60.243527595526125],[5.3981695068246998,60.243532323462567],[5.3982633096376453,60.243543608059014],[5.398313698716998,60.243549183294853],[5.3984324853409644,60.243559663465085],[5.3984812318749418,60.243563405415223],[5.3985300041242654,60.24356642002224],[5.3986307983817277,60.24357314863709],[5.3987264053713275,60.243580850778912],[5.3988201556179831,60.243591135885424],[5.3988669628236075,60.243597719133597],[5.3989623377705858,60.243609836868131],[5.3990073414885442,60.243616380069049],[5.3990954476012663,60.243628507001965],[5.3991926721728882,60.243640575935892],[5.3992396052386118,60.243647989358614],[5.3993259083314058,60.243661882731203],[5.3994141587881899,60.243676646834508],[5.3994556899532533,60.243683203428979],[5.3995420207437812,60.243695200954235],[5.3995796569086734,60.243700842819436],[5.3996191238926317,60.243708251087924],[5.3996605211517981,60.243716520676763],[5.3997038208190071,60.243725740706786],[5.3997450572505006,60.243735803488889],[5.3998278891141709,60.243757763313191],[5.3999048425921226,60.243780570112392],[5.3999426234456207,60.2437906558417],[5.3999803068517016,60.243801628719652],[5.400018115029309,60.243813440852527],[5.4000827037238519,60.243836235368953],[5.4001183223976943,60.243849875488259],[5.4001542382324814,60.243864431447513],[5.4001882789744018,60.243879763374878],[5.4002241138659359,60.243897031473047],[5.4002616009555799,60.243914236564478],[5.4002972566499867,60.2439314907881],[5.4003311902219755,60.243947799451441],[5.4003652840911958,60.243964130433383],[5.4004011197425408,60.243979582937826],[5.4004350524316731,60.243995900536575],[5.400456582175198,60.244008600796654],[5.4004848984682337,60.244026671341437],[5.4005105997514988,60.244044518089652],[5.4005215863662084,60.24405214153235],[5.4006506480533503,60.244047448365215],[5.4006778948647503,60.244046453387469],[5.4009777195092461,60.244035331484412],[5.4069734304078976,60.243812613691681],[5.4109632561657124,60.245557210435685],[5.4212904980174796,60.249687262959142],[5.42125280723043,60.247006453037201],[5.4212473304167634,60.246694580347402],[5.4228847901156119,60.244568998475287],[5.4228852352004342,60.24456839931154],[5.4231131101237295,60.244266156947617],[5.423113514255971,60.244265601617556],[5.4287762660692209,60.248463313382175],[5.4296751400675216,60.249473147032866],[5.4332537209107725,60.251967326560624],[5.4343412754824305,60.252663375930595],[5.4356655880319122,60.253515254590191],[5.4361238872100666,60.253809760295184],[5.4364940314847399,60.254047744270089],[5.4365451300315897,60.254080574462556],[5.4366233485184594,60.254130760689648],[5.4369905321089114,60.254362111519498],[5.4373252319033067,60.254586387024048],[5.4373778278188105,60.254621593902918],[5.4374048797664285,60.254639747865795],[5.4376189229452523,60.254781194696207],[5.4377758507610761,60.25488792423441],[5.4391301485737387,60.256343422405799],[5.4401124534749652,60.256341105000267],[5.4402779792641462,60.256340748620673],[5.4421008818178214,60.25633645821523],[5.4421788371296396,60.256336248701253],[5.4436502517140006,60.256332816019395],[5.4470065192166546,60.256324800272147],[5.4504794249058488,60.257752492713891],[5.4527674656493685,60.25877205460219],[5.4553582809131322,60.260793295942442],[5.4561940493047612,60.26145050738338],[5.4574647813397767,60.262434437326391],[5.4582096692699196,60.262643546476475],[5.4621064343539034,60.263719983929263],[5.4637922315643586,60.264185089955348],[5.4662160293148352,60.265376818524643],[5.4680916737147962,60.267783074008484],[5.4751960553089098,60.272787984002377],[5.4772911838696725,60.274796406063892],[5.4782446619632168,60.275710459120752],[5.4787418599234341,60.276312886504684],[5.4793995952611629,60.277109945085549],[5.4801834666786231,60.277896055827171],[5.4852052732540901,60.2831919041882],[5.4887897352294903,60.285928240079294],[5.4905600267248831,60.287799322694191],[5.4912288816288921,60.288678850637126],[5.4953334638247071,60.288023932392555],[5.4971970082679933,60.287570492369468],[5.4985880397515041,60.287370759334593],[5.49900433381704,60.287297628914956],[5.5013743342839714,60.287020756695902],[5.5030263339364431,60.286948495372592],[5.5033648316621315,60.286932384637666],[5.5033654682535804,60.286932356473571],[5.5031978954541838,60.28657266962734],[5.5029563432847066,60.286085479183185],[5.5023951234810005,60.284962210629594],[5.502394928111439,60.284961836997127],[5.5035199117130462,60.284635716800565],[5.5036472995905994,60.284598692813461],[5.5043527132475099,60.284382543949825],[5.505077296134135,60.284231533609088],[5.505692844370615,60.284046695842541],[5.5068484317602877,60.283701681020567],[5.5076262915990366,60.283501676433744],[5.5084309457347107,60.283208751042977],[5.5098646443270045,60.282814767400858],[5.5111099119029872,60.282441105203219],[5.5116080104305807,60.282274632891919],[5.512326142021637,60.282060089878776],[5.5135769219703752,60.281770707870031],[5.5207097034978956,60.279686340587759],[5.5218881343671784,60.281073580867421],[5.5232863930746632,60.282701145786035],[5.5248872844745174,60.284548993574361],[5.5259325649950641,60.285743396237692],[5.5269103213026538,60.286850553097032],[5.5259068652550649,60.29381188742736],[5.5251305089112046,60.296949181427962],[5.5297719895427333,60.298091080465269],[5.5381906091534736,60.305090709800993],[5.5387854934023206,60.305585103120706],[5.5390535651292234,60.305808080927228],[5.5393346478462853,60.306066447339191],[5.5398880157450856,60.306575210872019],[5.5416186428557515,60.308166241918677],[5.5432874158573631,60.309700527525891],[5.543851595131124,60.311296291485583],[5.5441430260184399,60.312119345637207],[5.5441234907843215,60.312286942211863],[5.5441001658114564,60.312484376412385],[5.5439905421371609,60.313400164761838],[5.5438183756499875,60.314834394717188],[5.5438183178227076,60.314834941429396],[5.5435763887634133,60.316855853202235],[5.5434994372254831,60.317498293154998],[5.5453051222314773,60.318616926439461],[5.5477551777562883,60.320134490104188],[5.5532434600554001,60.323533434505777],[5.5532603158442946,60.323544404836284],[5.5538771132014224,60.323947961348551],[5.5538801896006618,60.323949892515252],[5.55446228847544,60.324287389185308],[5.5546682641367608,60.324427116639832],[5.5569353381872544,60.325853957357268],[5.5653058991946605,60.328181079989051],[5.5764037076966728,60.329519976195478],[5.5882547721187761,60.339234535548869],[5.5912215543892696,60.341637839318786],[5.5913060612966623,60.341925243084773],[5.5913093974555892,60.342212595460957],[5.5913173496268307,60.34283824389744],[5.5913173483534004,60.342838603341399],[5.5913180185570885,60.34289191294571],[5.5913182076149983,60.342907465160131],[5.5913509985675889,60.34548728122769],[5.5914014507736409,60.349457447127328],[5.5914014563509218,60.349457914589692],[5.5911007172517611,60.351210295771317],[5.5911006258260141,60.351210823653815],[5.5910796856574407,60.351333479073112],[5.5910796007859149,60.351333944215355],[5.5910652595103656,60.351448815486712],[5.5910651880449036,60.351449325907367],[5.5910306752429433,60.351555196110674],[5.5910304914978122,60.351555739598858],[5.5909757217685927,60.351670436559729],[5.5909754656662232,60.351670978191763],[5.5909274064457737,60.351786889754777],[5.5909272102274246,60.351787379001422],[5.5909042354712968,60.351874295193731],[5.5909041134810931,60.351874768370671],[5.5908805792383633,60.352015295099584],[5.5908804906158807,60.352015796093184],[5.5908846565304877,60.352160969655671],[5.5908906865264099,60.352280838960738],[5.5908803728403358,60.352426413962405],[5.5908803356749308,60.352426943236708],[5.5908438277293762,60.352540607802425],[5.5908183675374232,60.35264140791346],[5.59081824418229,60.352649358164122],[5.5908226668469085,60.352670563892417],[5.5908249057465884,60.352697393328818],[5.5908247014004075,60.352707507347006],[5.590824308999931,60.352707964600327],[5.5908199083165986,60.352723174393603],[5.5908197663589849,60.352723665032087],[5.5908106580758901,60.352747821856191],[5.5908104790024957,60.352748320529493],[5.5908016205342781,60.352788138957926],[5.5907897916471185,60.352830694090251],[5.5907896677780764,60.352831185192741],[5.5907779941193256,60.352874337442366],[5.590777852160361,60.352874828080822],[5.5907621817298896,60.352913528137975],[5.590761963665849,60.352914052771716],[5.5907322304073599,60.352983010478695],[5.5907320369880429,60.352983472836257],[5.5906953805814252,60.353070253719054],[5.5906951625151988,60.353070778352667],[5.5906611855585631,60.353140768521548],[5.5906609531479941,60.3531412568395],[5.5906176689846081,60.353215780288522],[5.5906173832401906,60.353216258251301],[5.5905651326423866,60.353298648871551],[5.5905648297432782,60.353299117407239],[5.5905078804442967,60.353384811481931],[5.590507578480187,60.353385271054606],[5.5904441147551074,60.353469773475922],[5.5904437366829818,60.353470267043583],[5.5903869541314606,60.353551408989745],[5.5903865913373298,60.353551929909976],[5.5903480717477834,60.35360740644262],[5.5903477289157788,60.353607909901044],[5.5902955453891057,60.353681315244316],[5.5902952063023932,60.353681782851091],[5.5902475247219767,60.353745085561258],[5.5902471884441205,60.353745526279269],[5.5902043202053839,60.353800954116558],[5.5902039839263473,60.353801394834427],[5.5901312360700901,60.353891581308631],[5.5901308389612572,60.353892083374049],[5.5900652406337876,60.353977726136392],[5.5900648834504025,60.353978193278365],[5.5900171524536448,60.354040398248081],[5.5900167962056795,60.354040856427034],[5.5899691307764732,60.354110935599827],[5.5899687888699177,60.354111430094306],[5.5899210097620537,60.354185891949491],[5.5899206840705453,60.354186404833747],[5.5898663820930334,60.354264267111446],[5.5898660629579275,60.35426471725544],[5.5898069174711651,60.35434258105176],[5.5898065384420192,60.354343083580275],[5.5897223286424529,60.354448846652097],[5.5897219733226375,60.35444929586729],[5.5896607447262028,60.354528166612937],[5.5896603457282303,60.354528686602521],[5.5895900632891244,60.354631176267233],[5.5895897223081157,60.354631661797733],[5.5895057350035628,60.354724004014102],[5.5895052854768839,60.354724486759025],[5.589430578287331,60.354794509917681],[5.5894300744867156,60.354794991269635],[5.5893554809515944,60.354870517299474],[5.5893550152040321,60.354870981653868],[5.58928012251749,60.354944334123509],[5.5892796377400336,60.354944806976214],[5.5892186944851412,60.354998027228795],[5.5892181554338407,60.354998498688481],[5.5891138453800844,60.355093141033869],[5.5891133453185091,60.35509358653303],[5.58902968702278,60.355175817664573],[5.5890292412311764,60.355176264556292],[5.5889614614533869,60.3552440298173],[5.5889609747924611,60.355244520594482],[5.588874723829254,60.355335752898789],[5.5888742951870238,60.355336209217107],[5.5887995048973682,60.355418622889964],[5.5887990544132,60.355419114595144],[5.5887491823892121,60.355474515052578],[5.5887487708971015,60.355474980797638],[5.5886739523468432,60.355552801369612],[5.5886734647396041,60.3555533011085],[5.588589686753977,60.355643419440554],[5.5885892571663334,60.355643884720735],[5.5885165036397106,60.355727276187622],[5.5885160921409938,60.355727741931894],[5.5884502415399187,60.355825779490601],[5.5884499204947637,60.355826247556507],[5.588386465231018,60.355901897252032],[5.5883860917852335,60.355902345998921],[5.5883181975781833,60.355971177482303],[5.5883177099590737,60.355971677219763],[5.588231387062133,60.356070672015953],[5.5882309346853631,60.356071181644744],[5.5881858642900415,60.356111005031082],[5.5881853651372486,60.356111441563598],[5.5881449739441473,60.356143467578406],[5.588072241102636,60.356168884749586],[5.5879701373783677,60.356200566664107],[5.5833918378630827,60.358380177722758],[5.5833919307135504,60.358380503639353],[5.5835917209316639,60.359145709497454],[5.58359714549277,60.359166491924277],[5.5850310343476863,60.364657552038231],[5.5862949039699776,60.369495957631884],[5.5863002596293247,60.369516908849576],[5.586301034530833,60.369520253906039],[5.5868553733218436,60.371665193841629],[5.5875989105756236,60.374543266600924],[5.5875984392724503,60.374543434243087],[5.582800149032658,60.376260434983067],[5.5824372712120249,60.376390271067805],[5.5803303657003651,60.377144071633026],[5.5801173459766158,60.377220284237126],[5.5792023978685625,60.377547608006488],[5.5792026811622257,60.377547848955189],[5.5876139222784973,60.384922021766322],[5.5876495183789636,60.384976011738836],[5.5907070909097456,60.387649913387186],[5.5941210772659682,60.389663539132044],[5.5942266771181401,60.389725817150705],[5.6069562041825458,60.39723094413587],[5.6126161046329219,60.398311646473509],[5.6144988832159024,60.398682703297226],[5.6174524268484793,60.399232281907445],[5.6222898637199936,60.400086892288869],[5.6248365116343155,60.40042728377945],[5.6280316813891371,60.400849209221114],[5.6320128892125938,60.401370229470039],[5.6337176518423355,60.401591195148534],[5.6345808481231909,60.401706962269067],[5.6361514174469471,60.401912504307809],[5.6365531952170986,60.401964504247687],[5.6393197447412549,60.402326986381716],[5.6406496741547718,60.402502832483371],[5.6426418131570353,60.402757978402235],[5.6434226662010634,60.402986556874616],[5.6436825350688764,60.403111565423117],[5.6452468599541916,60.403863531511455],[5.6453452595611679,60.403911188270939],[5.645458224668511,60.403972988661046],[5.6456214725675897,60.404065658556405],[5.6457489403229513,60.404149275340203],[5.6462505653854667,60.404576203100916],[5.6467065547266548,60.407512132684211],[5.6494386372485863,60.410898130004711],[5.651881358744288,60.413197628809478],[5.653188302514236,60.414445676545306],[5.6559516073838285,60.418683084371899],[5.6637942492064557,60.42029709059311],[5.6649460484062342,60.420033248960742],[5.6738335960718844,60.422413347914294],[5.6791629455451531,60.423859894623277],[5.6801027298449362,60.424097259713811],[5.6805596783232435,60.424239255670557],[5.680584770550869,60.424245947257681],[5.6814704009839074,60.424482131548409],[5.6816973133805266,60.424542650626037],[5.682027909768478,60.424630790019066],[5.6867917859144033,60.425901041389238],[5.6867915208597344,60.425901502084223],[5.6866567650440913,60.428757275751508],[5.6864460605861398,60.435754978507632],[5.6864456442095035,60.435755138886201],[5.6818507549867112,60.437521952038921],[5.6744888275439411,60.43991432906806],[5.6690848930856959,60.441638379761365],[5.6663034110670898,60.4425255511822],[5.6499611863385431,60.443148863228771],[5.6475373498245514,60.442715475606882],[5.6449866498020338,60.442813718042466],[5.6431180866602322,60.442897477690714],[5.6426520356226515,60.44214434347176],[5.6414845592076928,60.440291028022962],[5.6410746384851338,60.439634803162605],[5.6410251166095904,60.439558246192604],[5.6409402073913286,60.439427101536353],[5.640906305017432,60.439255168430471],[5.6408332039391702,60.438942684530083],[5.6407526873716067,60.438599018692209],[5.6406885230502848,60.438324503824305],[5.6405139915743439,60.437547531317001],[5.6404195474604579,60.437162373031882],[5.6403813296648551,60.437097370150283],[5.6400653336419087,60.436745613548268],[5.6393821912769564,60.436007268569213],[5.6393347124537927,60.435955897884021],[5.6381103820267189,60.435545096163786],[5.6379640405236975,60.435476319646078],[5.6368407351753254,60.434970228472388],[5.636577596716978,60.434856370518268],[5.6365123279742377,60.434723903352776],[5.636235311894974,60.43429669005306],[5.6359530612554307,60.434104352927555],[5.6358801088023709,60.43404936259445],[5.6357867868083575,60.43385785391834],[5.6357289037855045,60.433748425889469],[5.6346824402217672,60.433834444506857],[5.6333823784764983,60.434743095129484],[5.6333818289151543,60.434743485630761],[5.6328697597891395,60.435130782304],[5.6305340308288754,60.436079773650583],[5.6305304060714336,60.436081236602739],[5.6305226236553221,60.436084391659257],[5.630513418518059,60.436086360417249],[5.6303962260255735,60.436111414733105],[5.6303879769284526,60.436112931387413],[5.6203240676747122,60.437959310456755],[5.6130739633701259,60.434063579722761],[5.5940403854569682,60.434112675393678],[5.5750068432015123,60.434159050167054],[5.5750061884745845,60.434159051296241],[5.55839107538202,60.428616921903227],[5.5422288027942015,60.42701645781942],[5.5260681854206686,60.425414044986326],[5.5260623395644419,60.425413461019794],[5.5154018762103583,60.430742747538744]],[[5.2381697134011089,60.292549398133787],[5.2382599233323273,60.292547550941329],[5.2383717917345658,60.292544591805552],[5.2384835151253899,60.292540531840402],[5.2385950553336764,60.29253538794196],[5.2394790748327829,60.292480443134458],[5.2394913327002284,60.292479352309492],[5.2401555100693509,60.292421318908154],[5.2403276301201203,60.292406330501713],[5.2403135355373598,60.292361976333659],[5.2408175465857987,60.292317936424801],[5.2409429723571188,60.292306981717203],[5.2412341576740582,60.29228154029969],[5.2414412742437175,60.292263442907178],[5.2427724804750691,60.292147128709026],[5.2428081498654899,60.292144003840654],[5.2429328921407681,60.29213315376586],[5.2431550791127908,60.292113736607376],[5.243225976334597,60.292107546066994],[5.2435095128783802,60.292082764072262],[5.2447190493601044,60.291977062571419],[5.2448073994445723,60.291969315677456],[5.2448145213107775,60.291989292347012],[5.2450435312116994,60.291969256160961],[5.2457051213558197,60.291911481685176],[5.2457975138550044,60.291903219298639],[5.2458913708078407,60.291894818505021],[5.245985469922152,60.291885885175198],[5.2460798214790305,60.291876329712728],[5.246215905931594,60.291861141308758],[5.2463511749328537,60.291844221850155],[5.2464854990337093,60.29182559464423],[5.2466188421164741,60.291805258672618],[5.2467510757618809,60.291783228283798],[5.2467686336899364,60.29178012941847],[5.2467497340953466,60.291764943304152],[5.2467709943709284,60.291761140174572],[5.2468608618533707,60.291744895599976],[5.2468656006600645,60.291743995930126],[5.2469500792725281,60.291728003372768],[5.247038785981303,60.291710826982836],[5.2471271419021068,60.291693550727729],[5.2482557171988713,60.291471623220659],[5.248423758428892,60.291438441909833],[5.2485918815549155,60.291404543613609],[5.2488487799927945,60.29135000884569],[5.2491029824872442,60.291292449106095],[5.249354339452351,60.291231905126672],[5.2496027394586395,60.29116840074132],[5.2497761150818594,60.29112199339577],[5.2497861844850719,60.291119293734489],[5.249826395471076,60.291108286459718],[5.2499632194501098,60.291070814314764],[5.2502608251745277,60.290989211867391],[5.2502615918819577,60.290988999827668],[5.2506043568339829,60.291067987858654],[5.2507102144236608,60.291092282000669],[5.2515399087944576,60.291221608482346],[5.2515735368258394,60.291223637049697],[5.2525387513347557,60.291279662574091],[5.2527277353555704,60.291329133764108],[5.2531037916135279,60.291427392115459],[5.2533214375407491,60.291484323330039],[5.2534860329572668,60.291534902519246],[5.2538017519068605,60.291383817991274],[5.2541916295916931,60.291265028006286],[5.2549938482999563,60.291043089757139],[5.2554779293087641,60.290962873354502],[5.2554936917715995,60.290960262010756],[5.2561204072497576,60.290856410131688],[5.2561335863755394,60.290854220203002],[5.255853088230193,60.290321459384664],[5.255617631217854,60.289884196683801],[5.2556175075782789,60.28988353702416],[5.2556311641811009,60.289881917921278],[5.2557748276155705,60.289864938334176],[5.2560081272964441,60.289837121629319],[5.2560591239366961,60.289833248218187],[5.2563314748561467,60.289812582126949],[5.2563716035496597,60.289809534549235],[5.2567240928253982,60.289752962798033],[5.2568449806605564,60.289741173196887],[5.2569520441711326,60.289730728334902],[5.2570485611646856,60.289721307226642],[5.2570705367840347,60.289719140625287],[5.2571104292453885,60.289713883948892],[5.25733899182638,60.28968329765565],[5.2574258932611917,60.28967388371494],[5.2574950111645586,60.289666395080673],[5.2575947143003967,60.289654285956985],[5.257675628968193,60.289644972667098],[5.2577692530802933,60.289633770604674],[5.257768331990281,60.289621250432923],[5.2577489686028871,60.289581603804258],[5.2577812622244489,60.289579458419482],[5.2577868225844488,60.28959732283289],[5.257792118034617,60.289596932857116],[5.2578749727153706,60.28958965165981],[5.2579262904900483,60.289582649567066],[5.2579941180365299,60.289573775994931],[5.2580622244912121,60.289565629344203],[5.2581308005906733,60.289558125106787],[5.2581996556067123,60.289551347789818],[5.2582689802755338,60.289545212884967],[5.2582700734086174,60.289545153823248],[5.2583117252289506,60.289541923902007],[5.2583382126575922,60.289539884318486],[5.258407734220822,60.289535193074258],[5.258477524467299,60.289531318346278],[5.2585474234234608,60.289528075850882],[5.2586174208427758,60.289525555185179],[5.258687516729883,60.289523756349034],[5.2587577110894026,60.289522679342312],[5.2588280039259718,60.289522324164942],[5.2588408590236613,60.289522327057817],[5.2588839465733672,60.289522373342066],[5.2589269623756625,60.289523046793121],[5.258969885933813,60.289524526605646],[5.2590127275004273,60.289526723182512],[5.2590554870783111,60.289529636523795],[5.2590933326974936,60.289532770861165],[5.2591163994312726,60.28953530877029],[5.2591379608306745,60.289538343554604],[5.2591590690315,60.289542174534958],[5.2591795640527312,60.289546617428982],[5.2591994458952405,60.289551672236954],[5.2592185238303868,60.289557423468523],[5.2592369885884054,60.289563786614636],[5.2592544792087175,60.28957075149976],[5.2592764943551211,60.289580900063562],[5.2592805326738521,60.289582002654988],[5.2592890032746196,60.28958709530248],[5.2592971026678255,60.289592267371027],[5.2593107582292768,60.289601101632449],[5.2593232796696983,60.289610353352117],[5.2593346772372263,60.289619932933043],[5.2593371077372923,60.289622428377214],[5.259352531658732,60.289637964064063],[5.2593666512327344,60.28965382252413],[5.2593791054954382,60.289669993582322],[5.2593811647915842,60.289672568447536],[5.2594370229016834,60.289662278089367],[5.2595004651702997,60.28965058354661],[5.2596486377740241,60.289623120357433],[5.2596835992378521,60.289616645288184],[5.2596860069762519,60.289616173839434],[5.2597368689435564,60.289606821163439],[5.2597733049625388,60.289600117976264],[5.2597710929706842,60.289586213153463],[5.2597705258018195,60.289572174920842],[5.2597712117502873,60.289558261895976],[5.2597769254239406,60.289530468341653],[5.2597821131311182,60.289516772093819],[5.2597950648243348,60.289493766752166],[5.2598032717493677,60.289483751053567],[5.2598127112887392,60.28947403975652],[5.2598235639217661,60.289464637947844],[5.2598411329921015,60.289451919890233],[5.2598629043244216,60.289438870846155],[5.2598782649624605,60.289431214049095],[5.2598946469906664,60.289424125356526],[5.259911880176328,60.28941751008373],[5.2599301245056944,60.289411552512092],[5.2599490190196736,60.289406242467301],[5.2599685739659323,60.289401490351686],[5.2599878562058722,60.289397539522589],[5.26020925326773,60.289355151094831],[5.2601971438586315,60.289345461643336],[5.2602053883925608,60.289344615372144],[5.2602140923957084,60.289344501139368],[5.2602225339504471,60.289345098598652],[5.2602308832907658,60.289346502433929],[5.2602382585114862,60.289348508017703],[5.2602436382115521,60.289350547246357],[5.260255806763892,60.289356553027304],[5.2602670114464249,60.289363070958963],[5.2602772625050713,60.289370011444163],[5.2602861989800838,60.289377364310141],[5.2602933306611499,60.289384666310681],[5.260424588347715,60.289364186123663],[5.2604164801599369,60.289354339798052],[5.260410006538895,60.289344449651516],[5.2604046567813008,60.289334231633056],[5.2604009415878838,60.289323969794054],[5.2603983400100409,60.289313469680778],[5.260397713461141,60.289303115114649],[5.2606871712004786,60.289249790289631],[5.2607988507382606,60.289251678993864],[5.26136146368267,60.289184656899465],[5.2614963690609526,60.289168682872678],[5.2616643033257446,60.28914887527246],[5.2618305311533931,60.289129738478927],[5.2619819172340403,60.289115306887879],[5.2619843426919548,60.289124184050074],[5.2621589575553873,60.289111979629936],[5.2622640507390486,60.289104639036879],[5.2624253048685192,60.289093370254903],[5.2624832500249568,60.28909014854846],[5.2625123824713897,60.289089198356933],[5.2625415601011989,60.289088644930345],[5.2625707447718053,60.289088505171463],[5.2625999385322224,60.289088761160826],[5.2626291032399024,60.28908942980123],[5.2626582228959347,60.289090492664918],[5.2626872593577785,60.289091966654809],[5.2627162146743487,60.289093833851368],[5.2627232521954062,60.289094517447644],[5.2627301054011566,60.289095546407843],[5.2627369397943848,60.289096898427616],[5.2627430474126378,60.289098589521686],[5.2627489949074171,60.289100572729559],[5.2627545296086069,60.289102840934895],[5.2627595643485954,60.289105364716811],[5.2627640831273217,60.289108125647594],[5.2627680348728143,60.289111095323051],[5.2627713685130688,60.289114245338951],[5.2627740510239081,60.289117547799485],[5.2627760694767645,60.2891209573975],[5.2627773898235013,60.289124455196898],[5.2627780161595146,60.289128005358648],[5.2627779355561994,60.289131562575598],[5.2627771330371376,60.289135099460111],[5.2627756317695065,60.289138571721715],[5.2627734518487959,60.289141961949099],[5.2627705983943498,60.289145225343411],[5.262767110573523,60.289148336041968],[5.2627630105296914,60.289151258713943],[5.2627612453017232,60.289152287629413],[5.2627583554782449,60.289153968004918],[5.2627531856105412,60.289156429092422],[5.2627475571181526,60.28915862558177],[5.2626040176732243,60.289208963811681],[5.2626110986433394,60.289216713680446],[5.2626544369053851,60.289246248430786],[5.2627783669948647,60.289202728514041],[5.2627836020286525,60.289201123178202],[5.2627891642317248,60.28919982368059],[5.2627949793647009,60.289198845907507],[5.2628009742121034,60.289198196785421],[5.2628070936064377,60.289197883749196],[5.2628132452604515,60.289197922176761],[5.2628193399586021,60.289198300566895],[5.2628253055093408,60.289199016886343],[5.2628310887929528,60.289200060650437],[5.2628365825459227,60.289201419849675],[5.262841733648429,60.289203083999361],[5.2628464729804865,60.28920502418709],[5.262850749470025,60.289207212008648],[5.2628545110209934,60.289209628019698],[5.2628576885132503,60.28921224330773],[5.2628602509702525,60.289215012057412],[5.2629174447602001,60.289288082235622],[5.2630353795379916,60.289265336677424],[5.2629770962202258,60.289190707807371],[5.2629750000498987,60.289187502762012],[5.2629735107238638,60.289184215932536],[5.2629726261941805,60.289180865238521],[5.2629723774372836,60.289177496495356],[5.2629727613814232,60.289174136582346],[5.2629737589546339,60.289170793951016],[5.2629753820615459,60.289167522868183],[5.2629775925584585,60.289164340236837],[5.2629793719733957,60.289162394880684],[5.2629803883975201,60.289161263976453],[5.2629837644593742,60.289158338885841],[5.2629876475284076,60.289155571891627],[5.262992033509196,60.289152998832776],[5.2629968842582029,60.289150636612277],[5.2630024663986186,60.289148528693303],[5.2630083988767717,60.289146682321451],[5.2630146275490493,60.289145095971882],[5.2630211312961626,60.289143796015523],[5.2630278369027748,60.289142789379035],[5.2630314064342496,60.289143716857801],[5.263053158347029,60.289149363063636],[5.2630780969622677,60.28915627651736],[5.2631026336772644,60.289163538191922],[5.2631267514684259,60.289171138619572],[5.2631504333120445,60.289179068332437],[5.2631736792084975,60.289187327330801],[5.2631964370619508,60.28919589617059],[5.2632187058488249,60.289204783811797],[5.2632404695690038,60.289213971826911],[5.2632616921267052,60.28922345919969],[5.263282392593764,60.289233237478847],[5.2633025358980818,60.289243296688383],[5.2633221050154235,60.289253627360566],[5.2633410818977602,60.289264228987356],[5.2633594495207099,60.289275092101079],[5.2634696219622858,60.289343892192989],[5.2635762359908611,60.289414048138354],[5.2636930012148051,60.289495357036373],[5.2638051687735308,60.28957824419949],[5.2640778470667735,60.289533877608314],[5.2646241274335956,60.289444962052592],[5.2646536148420378,60.289375438407845],[5.2646592354855279,60.289364432796539],[5.2646655708834427,60.289353510225617],[5.2646725627973803,60.289342705009993],[5.264680266394298,60.289332009713902],[5.2646886265060786,60.289321431772869],[5.2646976400620549,60.289310998066071],[5.264707325109752,60.289300709101482],[5.2647176445292363,60.289290572822601],[5.264728614321343,60.289280607656913],[5.2647401983896511,60.289270812588164],[5.2647524127350831,60.289261206043768],[5.2647652032132948,60.289251786499499],[5.2647786028499324,60.28924258185058],[5.2647925755488041,60.28923359108073],[5.2648071032616892,60.289224813681777],[5.2648221829184418,60.289216276532876],[5.2648377974943168,60.289207970166039],[5.2648539268946433,60.289199911992583],[5.2648639318877271,60.289195222928818],[5.2648705510247495,60.289192119423902],[5.264887670908041,60.289184583500017],[5.2649052494253512,60.289177312164462],[5.2649232845301697,60.289170323336691],[5.2649417571514405,60.289163625468241],[5.2649606322168019,60.289157208583134],[5.2650140577757423,60.289139656580168],[5.2650843859145109,60.289135811523337],[5.265154879362238,60.289132896907319],[5.2652255180304994,60.289130930143479],[5.2652962307568902,60.289129900239992],[5.2653057195980315,60.289129888661414],[5.2653669804283831,60.289129815140704],[5.2654377129073016,60.289130673321715],[5.2655083560079383,60.289132472751383],[5.2655788916884312,60.289135212921941],[5.2656492477630072,60.28913889180199],[5.2656668951438661,60.289140053603333],[5.265719388141723,60.289143508376014],[5.2657572176549792,60.28914678417209],[5.2669700900284422,60.289251867112718],[5.2669849305102368,60.289253192462461],[5.2669998800045628,60.289254197288358],[5.2670148843668771,60.289254880067169],[5.2670299435967065,60.289255240798909],[5.2670450226202661,60.289255269508281],[5.2670601023663322,60.289254974647299],[5.2670751286903004,60.289254354692844],[5.2670900825209559,60.289253418096941],[5.2671049468325162,60.289252155392177],[5.2675515414596346,60.289289346829527],[5.2681420552578277,60.289333101186038],[5.2683802139489542,60.289349515562151],[5.2684108077994223,60.289351625332287],[5.2684661235436234,60.289353989871735],[5.2685874710975789,60.289364772909146],[5.2685985294182123,60.289366081605579],[5.2685992441875751,60.289366164625157],[5.2686532135320583,60.289372554059497],[5.268681813521634,60.289375794190619],[5.2686860319924929,60.289376272355838],[5.2714948788948108,60.289694340099331],[5.2714955936792354,60.289694423103477],[5.2715093220357323,60.289695977358832],[5.2715575350375392,60.289695534337213],[5.2716057752959591,60.289696440347484],[5.2716131587891883,60.289696791621701],[5.271643775667024,60.289698227140967],[5.2716981762620962,60.28970227242921],[5.271758527410082,60.2897076444074],[5.2718073350847776,60.289711990926143],[5.2719849690359695,60.289727767865877],[5.272162732583209,60.289743997632876],[5.2723258293708151,60.289758646628535],[5.273078999509285,60.289803559268343],[5.273667977041617,60.289838679466051],[5.2745169217097487,60.289871289452527],[5.274537797422159,60.289872091269238],[5.2746880332493475,60.289880443815349],[5.2746930010563915,60.289880861926612],[5.2747038139051208,60.289881785695783],[5.274705294355468,60.289876577949947],[5.2747053893279174,60.289876221074564],[5.2747258793321583,60.289804114966635],[5.2747730203005441,60.289808314718776],[5.2749056972408601,60.289842061077884],[5.2752144648334349,60.28986223390848],[5.2754312635900842,60.289880723475456],[5.2754424230857104,60.289881306360904],[5.275609260720044,60.289891741779179],[5.2762447737185525,60.289944362881073],[5.2762974183538107,60.289949525496908],[5.2764377290669975,60.289962361449774],[5.2765553629643795,60.289972403697242],[5.2770347839630327,60.290012461380229],[5.2775426832641168,60.290058439655212],[5.2776871869790485,60.290071032350419],[5.2782056482460957,60.290116495360337],[5.2782144299686822,60.290096607373705],[5.2792346392344491,60.290185979919755],[5.2792348879081992,60.290177906215526],[5.2792419028217772,60.289949156388779],[5.2792652906683966,60.289950477323266],[5.2793030715892151,60.28995260630721],[5.2793071273928183,60.289941466405224],[5.2793072584127474,60.28994111053823],[5.2793105867358641,60.289932386126345],[5.279322142374661,60.289901160441346],[5.2793374791614012,60.289855479377806],[5.2792700932704797,60.289851612457248],[5.2792482365690541,60.289850361420584],[5.2792482919190986,60.289849715799342],[5.2792500843904397,60.289831096909055],[5.2792619839340276,60.289654896086596],[5.2792921592294366,60.289227349446882],[5.2790905221053013,60.28791871971876],[5.2766951874169985,60.28652562969404],[5.2764943304763907,60.28640880515411],[5.2766872362378869,60.286136023308046],[5.2768351228810086,60.285986738836741],[5.2770212397084206,60.285784685614942],[5.2770263467227698,60.285778626824467],[5.2771941050743401,60.285579743579092],[5.2773018690636171,60.285439364115668],[5.2773535183217168,60.285372086917853],[5.2774992686118871,60.28516197941623],[5.277512230491137,60.285141939105209],[5.2775515068039835,60.285082997635499],[5.277599999249027,60.285010202722731],[5.2777625188306825,60.28478474563606],[5.2779385163415515,60.284561733841315],[5.278128131224805,60.28434153074204],[5.2782092175993123,60.284252571744403],[5.278525304437407,60.28397851500052],[5.2785257061201696,60.283978166726079],[5.2785261078029055,60.283977818451667],[5.2786489811295985,60.283871290201482],[5.2786493828096859,60.283870941926665],[5.2787536988372157,60.283780494908179],[5.2787541005150445,60.283780146632999],[5.2787750279185452,60.283762001494601],[5.2787754295959335,60.283761653219372],[5.2788378511751652,60.283707522270646],[5.2788908224126878,60.283623796698734],[5.278955067232066,60.283512576791146],[5.2790073647663274,60.283422036964581],[5.279110003826891,60.283218359192119],[5.2791336062399736,60.283165233785624],[5.2791705902957009,60.283081994582979],[5.2791699560359993,60.283078021845547],[5.2791547025647185,60.283021146148208],[5.2791508282759656,60.283013828700781],[5.2791253507897267,60.28296567277259],[5.2790821699488752,60.282912418225933],[5.2790287395984805,60.282864925488298],[5.2790257799727272,60.282862298732248],[5.2790150021368945,60.282855039345783],[5.2790144474276648,60.282854664247751],[5.2789899360422101,60.28283812105569],[5.2789893302569126,60.282837717559495],[5.2789573523096109,60.282816156095407],[5.278940690251793,60.282807473280307],[5.2789399901670775,60.282807103093276],[5.2788775476213816,60.282774548137105],[5.2788050288988906,60.282745117192945],[5.2788043366692117,60.28274483711067],[5.2788033849808293,60.282744450877559],[5.2788014124830891,60.282743649507061],[5.2787880888487164,60.282738242242424],[5.2786900877286715,60.282707808885647],[5.2786835177941827,60.281851377599438],[5.278648287738835,60.281605721741052],[5.2786742112003813,60.281381016608719],[5.2787657810603443,60.28099294363885],[5.2787951377504996,60.280625057672736],[5.2788428076651384,60.28034918856109],[5.2788038042315213,60.280267197833872],[5.2788488769636492,60.280093725084832],[5.2788583877478805,60.2799496360999],[5.2788635945227478,60.279872031380734],[5.2789221430359774,60.279362046591054],[5.2789495846095154,60.279181248023669],[5.2789062289944217,60.278922690427393],[5.2789028584392694,60.27871361261505],[5.2789157265293287,60.278520899966992],[5.2789054379825018,60.277826786880965],[5.2787931422895786,60.277615822230672],[5.2787695465701514,60.277594127205397],[5.2787268063998773,60.277545019457328],[5.2786523637287743,60.277494572973467],[5.2784962614762572,60.277447588371331],[5.2783543647304931,60.277399833584184],[5.2782606328599329,60.277367811532073],[5.2782538309978699,60.277365553347678],[5.2781419169003927,60.277327897650991],[5.2780176063156077,60.277294208552888],[5.2778806565938075,60.277244344893518],[5.2778211874255367,60.277227755368813],[5.2777519788971041,60.277209274610605],[5.2777244098876004,60.277195467692515],[5.277647563843888,60.277182075815958],[5.2776004141677619,60.277165382434234],[5.2775449940221844,60.277138659462103],[5.2774947764174787,60.277117116030375],[5.2773492906318866,60.277065933642845],[5.277216647512212,60.277008459965806],[5.2770791948305176,60.276950311861455],[5.2770361026532031,60.276929777177337],[5.2769569604167037,60.276901579238178],[5.2768896480883596,60.276877578328062],[5.2768362490221943,60.276858552019533],[5.2767993714075478,60.276848618374132],[5.2767534079598883,60.276835823038162],[5.2767088142415162,60.276830077190787],[5.2766663753109828,60.276824481691357],[5.2765776241163005,60.276815518957406],[5.2765373125290829,60.276808724729001],[5.276492282732387,60.276800449775884],[5.2764759874343277,60.276798913772737],[5.2764430909466826,60.276798529737107],[5.2763908392036152,60.27679805184286],[5.2763359330495616,60.27680181392131],[5.2762970185947431,60.276803418179959],[5.276165534618638,60.276821659469555],[5.2761601802490805,60.276822587794868],[5.2761085708782174,60.276837138690198],[5.2760588236444841,60.276852820464192],[5.2760218779474934,60.276862569599011],[5.2759954841212,60.276868659974319],[5.2759673002445711,60.276877756199504],[5.2759596561217181,60.276886080731209],[5.2759487919843604,60.276895663151763],[5.2758983956313577,60.276940898959538],[5.2758745846286654,60.276964050168743],[5.2758612934641587,60.276974283533583],[5.2758232468868194,60.276998473269977],[5.2757678073275436,60.277033949712383],[5.275756234780955,60.277041804407894],[5.2757120405739375,60.277067529353552],[5.2756733459591807,60.277084689792083],[5.2755980104709401,60.277104147308471],[5.2755605262772471,60.277112263266019],[5.2755217939043506,60.277128164206154],[5.2754952309258289,60.277143687712844],[5.2753891041633532,60.277177651051154],[5.2753766720381723,60.277173976241627],[5.2752878730312567,60.277143169141773],[5.2752307074164051,60.277107946922769],[5.2751571362733678,60.277061028357693],[5.2750509454085757,60.276995396500851],[5.2749294783703338,60.276935178157331],[5.2748612712394172,60.2769031512548],[5.2748360797088756,60.276889140811583],[5.2747491010086938,60.276840766880909],[5.2747435930029187,60.276838275186122],[5.2746626993174068,60.276804813292713],[5.2745151259003498,60.276752939859961],[5.2743784588159324,60.276695889531197],[5.274304435482609,60.276665676460681],[5.2742156244340634,60.276627048215808],[5.2741962887053546,60.276617246952931],[5.2741209986205098,60.276579088267859],[5.2740385682385629,60.27651780817385],[5.2739455741286649,60.276441220426449],[5.2739140622461234,60.276410403442057],[5.2738661043114927,60.276363484423541],[5.2738066826035244,60.276305187459407],[5.2737991461759197,60.276304616228977],[5.2737704256097535,60.276338289605775],[5.2737695896859043,60.276339272843941],[5.2737492221893163,60.276363167593118],[5.2737125110745788,60.276370855308464],[5.2736741076535809,60.276372742801293],[5.2736153965857051,60.276379722633195],[5.2736015910832137,60.276391289616747],[5.2735820360914909,60.27640089738297],[5.2735807888882578,60.276401042119836],[5.2735482894359897,60.27640480324699],[5.2735286861930959,60.276399578530096],[5.2735275621758655,60.276399277298964],[5.2733929611849293,60.276343182785745],[5.2733552430411663,60.27632840667161],[5.2733545499723649,60.276328135522263],[5.273343796509784,60.276323869480755],[5.2733433396882043,60.276323748784968],[5.273342871968933,60.276323564863119],[5.2732553993759046,60.276289252089008],[5.2732197003938337,60.276267395741598],[5.2731989919115163,60.276237870812842],[5.2732027449223926,60.276171550791666],[5.2731756460500741,60.276125037723524],[5.2731691562033474,60.276121952095984],[5.2731684352227299,60.276121608252915],[5.2731677482829644,60.276121283343272],[5.2731595080684119,60.276117357547889],[5.2731306647817142,60.276103639659802],[5.2731230431391598,60.276100639084589],[5.273005588174505,60.276071991520951],[5.2728948737051002,60.276050903848486],[5.2727911614026759,60.276031900415191],[5.2727969954238949,60.276026761078938],[5.272722298719537,60.27601360641583],[5.2727184662912494,60.276020240157735],[5.2726991490434614,60.276021405226018],[5.2726785245178647,60.276019747106133],[5.2726044367001146,60.275998070348763],[5.2725764822759205,60.275986085135685],[5.2725550853534262,60.275976908831488],[5.2724277334426271,60.275922347265855],[5.2724268361490072,60.275921962509983],[5.2724261461587076,60.275921664476272],[5.2717783533592559,60.27564408626899],[5.2717776242368215,60.275643814097592],[5.2717527237509323,60.275633145961685],[5.2717520337728923,60.275632847924562],[5.2710049757194541,60.27531277333275],[5.2703187691494264,60.274383208954639],[5.2686712673061979,60.272196695103986],[5.2635386379160014,60.272270153150686],[5.2601577509061475,60.272318432395224],[5.2588637171660633,60.272336889425709],[5.2588621215785185,60.272336916332996],[5.2588613969632716,60.272336922861911],[5.2588459533374596,60.272337143460646],[5.2583541948915071,60.272344090657512],[5.2581950458582067,60.272343196780341],[5.2576581219815681,60.272134254461569],[5.2564164672190472,60.272044476754822],[5.2555269305460772,60.271912403736906],[5.2540198484316001,60.271899783376718],[5.2540093832477517,60.271898723794912],[5.2540086678724984,60.271898649660102],[5.2539332613785614,60.271891045997194],[5.2538808483814092,60.271885718619728],[5.2533283467798118,60.271829574910214],[5.2532152202368394,60.271818082942914],[5.2530842775516708,60.2718047752643],[5.2526977152849357,60.271765450921684],[5.2521685187747229,60.271705574215346],[5.2521635524157668,60.271705011423649],[5.2515640066268698,60.271637167060454],[5.2513171145414459,60.271609228184431],[5.2412163894042481,60.269337320883011],[5.2369869528411979,60.266156813272595],[5.2346284055043313,60.264378321569943],[5.2345684542637363,60.264333113779699],[5.2345608126886001,60.26432735074583],[5.2345603129025386,60.264326977004899],[5.2345446629075756,60.264315179845603],[5.2344744147976403,60.264262129085587],[5.234097998202107,60.263978272100076],[5.2339203519290427,60.263844418382568],[5.2340248611768754,60.26270635107651],[5.2240345315001067,60.263621563182063],[5.2224530207165598,60.263766368535229],[5.2220319077944488,60.263804890043502],[5.2200824737877776,60.263983321015409],[5.2171991534636604,60.264247180185663],[5.2144670071629848,60.264497225099454],[5.2140148474646368,60.270074140913678],[5.2164364123401779,60.270542436022289],[5.2170996125569431,60.272124604879927],[5.2176979120708236,60.273551838222502],[5.2177598937999852,60.273699674433985],[5.2178729772379997,60.273969238508052],[5.2182608116891789,60.274590198621951],[5.2182610408547152,60.274590564709328],[5.2182818109576523,60.274623822331243],[5.2183401968386454,60.274717307952081],[5.2183676428294339,60.274761236876124],[5.218803650931469,60.275182245162256],[5.2188040424606745,60.275182615876652],[5.2193328382765989,60.275693207143824],[5.2195299986812493,60.275752192979851],[5.219559983847371,60.275761164455922],[5.219560683694171,60.275761373166567],[5.2195613134527878,60.275761561902065],[5.2195922912582757,60.275770714470092],[5.2201693032726864,60.276043195420755],[5.2205044968969165,60.276201475376787],[5.2208875790022375,60.276382368311317],[5.2212900573323253,60.276572441845424],[5.2222490207833205,60.277020297146834],[5.2223905667845374,60.277086395854134],[5.2224902260039858,60.277132937465282],[5.2226361168999595,60.27720107423589],[5.2229098868772246,60.277348672692668],[5.2237109703892672,60.277780533483408],[5.223885274389267,60.277881684518576],[5.2239771348241124,60.277934987238375],[5.2243264681447572,60.278168212479244],[5.2243270221411002,60.278168587799428],[5.2245879726295161,60.278342864951334],[5.2248361455467691,60.278508526187196],[5.2251247872903548,60.278701226236905],[5.22541821265657,60.278881360512187],[5.2254799277233488,60.2789192424896],[5.2257623706369793,60.279081795951676],[5.2259614798811285,60.279257528687708],[5.2260623889241611,60.279388579717363],[5.2260623104655304,60.279388946026359],[5.2260511885562995,60.279438598394897],[5.2260088241069846,60.279623821013423],[5.225856806408407,60.280291948808006],[5.2258571984787103,60.280343465811647],[5.2258564223252391,60.280353331415988],[5.2258319030359921,60.280465443367817],[5.2257927992857738,60.280580016820863],[5.2257328994105547,60.280730493176861],[5.2256656136935584,60.280891635842458],[5.225605253001488,60.281061784532284],[5.2255310369474932,60.281275134716957],[5.2254724470830896,60.281448749494864],[5.2254118858815035,60.28162689245999],[5.2253362990184762,60.281830136110045],[5.22528743387572,60.281974364460901],[5.2252580371309234,60.282061258808575],[5.2251771442714094,60.282261834564949],[5.2250993850992984,60.282477600646558],[5.2250321471004559,60.282628856765264],[5.2249846579782329,60.28273447232494],[5.2249689031317041,60.282769655668751],[5.2249517377567418,60.282807962936054],[5.2248999662270057,60.282922445429243],[5.2248362378710098,60.283087194666201],[5.2247704185293085,60.283259075429335],[5.2246817071794371,60.28348028253577],[5.2245949676271843,60.283690669253438],[5.2245213068195264,60.283884978591068],[5.224462553781442,60.284067757017979],[5.2244038147139014,60.28423786160532],[5.2243865450020701,60.284293370433666],[5.2243860806931339,60.284294256101504],[5.2243787012906369,60.284314270922373],[5.2243638575506024,60.284361309417449],[5.2243544094021646,60.284385130553694],[5.2243447533086469,60.284413889616964],[5.224337907296297,60.284441829767616],[5.22432733860109,60.28447065274753],[5.2243149999950456,60.284503829875447],[5.2243064931814986,60.284533610412119],[5.2242966715190633,60.284563802970915],[5.2242785092968393,60.284605084072382],[5.2242705908474836,60.284632903813296],[5.2242623299848105,60.284666826199945],[5.2242547459931448,60.28469645322027],[5.2242472308596479,60.284720778802338],[5.2242412088054451,60.28475098960098],[5.2242342028618962,60.284778745420979],[5.2242317758601065,60.284804474235912],[5.2242353496050447,60.284831542367606],[5.2242352338638023,60.284852932440472],[5.2242335847554919,60.284865649619114],[5.2242790559898733,60.284878718987862],[5.2243241353384411,60.284892046852427],[5.2243625927291779,60.284903927824466],[5.2244477668262066,60.284928284318902],[5.2246040379404786,60.284968776304204],[5.2247860245487292,60.285029595409434],[5.2248155069032078,60.285039243329628],[5.2250005246758073,60.285087923597921],[5.2250679717559221,60.285104314589589],[5.2251030124975202,60.285112862156772],[5.2251424760843914,60.285123872639417],[5.2252144608936568,60.285138594897205],[5.2252633576062886,60.285155716444422],[5.225294390883759,60.285169183675059],[5.2253419521599271,60.285186896414416],[5.2253977614799316,60.285208439308732],[5.2254574580510598,60.285230811870328],[5.2255218350838186,60.285256553523979],[5.2256041011636238,60.285287298449667],[5.2256794182019037,60.285315508552543],[5.2257770933290075,60.285352354652083],[5.2258873729641797,60.285394503058214],[5.2260018840987517,60.285442344786446],[5.2260917272819079,60.285482743158305],[5.2261232095265724,60.285497031944338],[5.2261653732388389,60.285516029051166],[5.2261794776333454,60.285522452722041],[5.2262747319023486,60.285555184615383],[5.226371996728405,60.285589321940009],[5.2264602551046604,60.285621495165017],[5.2265111588459394,60.285638493531025],[5.2265502100825412,60.285653087364061],[5.2266224434097621,60.285689209225339],[5.2266916983586427,60.285719763175734],[5.2267692081841046,60.285749383301912],[5.2268567869182032,60.285781177366822],[5.2269504177061412,60.285817008656082],[5.2270413371470665,60.285851234678887],[5.2271209772865399,60.285879656734679],[5.2272151198214685,60.285912625963981],[5.2273148868192783,60.28594863146477],[5.2274062664965246,60.28598044333534],[5.2275159127989532,60.286015561038489],[5.2275497476504693,60.286028298372273],[5.2276210623063299,60.286055135076595],[5.2277231498865451,60.286093003989699],[5.2278263300102985,60.28613396006952],[5.2279178594150881,60.286169191564156],[5.2280339881788427,60.286203054903829],[5.2281277207314751,60.286233315157034],[5.2282276206788882,60.286260334924123],[5.2283283555599898,60.286289535655875],[5.2284353859299761,60.286319095037314],[5.2285721284547737,60.286356330367482],[5.2286887234753525,60.286386161407435],[5.2287999931488196,60.286413503894991],[5.2289101760859902,60.28643614123073],[5.229009424892836,60.286451546347074],[5.2291076785391049,60.286467732094707],[5.2291173096017474,60.286468994580687],[5.2291909604302838,60.286478728217773],[5.2291968535440549,60.286479435026443],[5.2292873228055727,60.286490905015285],[5.2293704662910123,60.286498391465251],[5.2294456289717228,60.286502864542129],[5.2295366051012486,60.286506798186679],[5.2296301902904645,60.28651008680658],[5.2297191097119109,60.286511445022214],[5.2297945823226097,60.286513230073062],[5.2298864874825632,60.286512246046733],[5.2299496482288257,60.286510894649986],[5.2300150674112835,60.286508798403766],[5.2300216258532091,60.286508445426442],[5.2300826015274042,60.286500919512115],[5.2302330227314853,60.286493328185649],[5.2302191439101513,60.286517922658412],[5.2302207886841439,60.286517789614386],[5.2299270076641644,60.287414072949602],[5.2299135944762281,60.287455040205892],[5.2298758062756052,60.287564528456436],[5.2303395939618902,60.287599728257305],[5.2304090769056844,60.28760637645324],[5.2299809188761754,60.288466752323387],[5.230094608218729,60.288680499633244],[5.2301332993673837,60.288720250647231],[5.2302491743026147,60.288797250728763],[5.2303773853284161,60.28886462362231],[5.2305043405357123,60.2889209045142],[5.2306368814644406,60.288971141699491],[5.2307737535700918,60.288991659055348],[5.231053342131001,60.289021263824615],[5.2312012710825577,60.289033825124058],[5.2313942400665265,60.289053058741459],[5.2314721672083815,60.289060305696644],[5.2316839002691831,60.289081689784545],[5.2317459563145086,60.28908839595568],[5.2319007889482059,60.289111759265381],[5.2320175310409383,60.289140422761541],[5.2321306994824486,60.28917338916775],[5.2322164925112338,60.289209802857535],[5.2323129119935663,60.289256136200407],[5.2324002245028876,60.289312368186792],[5.2324531913018966,60.289360254131296],[5.2324884727506626,60.289398199706902],[5.2325074449775313,60.289431547372054],[5.232563451707553,60.289506485864337],[5.2325820046265026,60.289557619359073],[5.2325946203722014,60.289630426970675],[5.232595685086471,60.289657333597944],[5.2325924590460398,60.28969005098336],[5.232659230271743,60.289794148973186],[5.2328139274355596,60.28982029380817],[5.232961756973463,60.289840041245782],[5.2330735535293922,60.289855080203161],[5.2331073640792987,60.289861792838558],[5.233549003945444,60.290275093223592],[5.2336258265757296,60.290346981593849],[5.2338796854934238,60.290584388913018],[5.2339105484497903,60.290616231121845],[5.2339430512935738,60.290647670427099],[5.2339771971239655,60.290678679949259],[5.2340129338635304,60.29070924023145],[5.2340502455308426,60.290739332841291],[5.234089116144176,60.290768939346293],[5.2341243815156631,60.290785041290995],[5.2341148122081762,60.290787475327292],[5.2339885845733196,60.290819569266752],[5.2340029126908352,60.290839805103843],[5.234016079021707,60.290860223696598],[5.2340280835639721,60.290880825045292],[5.2340389283792907,60.290901591231325],[5.2340485804645489,60.290922494352074],[5.2340570599295146,60.290943517001061],[5.2340607664539025,60.290954255888892],[5.2340643487237095,60.290964658666304],[5.234070431892051,60.290985891957313],[5.2340753114958947,60.291007198955349],[5.2340789705164354,60.291028570188786],[5.2340814481434741,60.291049979803738],[5.2340826912614355,60.291071417304146],[5.2340827210117826,60.291092856323793],[5.2340815554404987,60.291114297374932],[5.2340791615439581,60.291135712554635],[5.234075559431858,60.291157084456088],[5.2340707511655271,60.291178395160259],[5.2340709311567464,60.291187209246175],[5.234071783067435,60.291196006446299],[5.2340733249466265,60.291204787272868],[5.2340755408100534,60.291213533294737],[5.2340784327219785,60.291222226592865],[5.2340820017147669,60.291230858207818],[5.2340862307723013,60.291239418667786],[5.2340911219587651,60.291247890053874],[5.2340966582580091,60.291256262894237],[5.234102858750795,60.291264528741593],[5.2341096723876177,60.291272659180791],[5.2341171161855451,60.291280663683416],[5.2341251932404331,60.291288515370965],[5.2341338504389823,60.291296203747223],[5.2341431058299968,60.291303729324291],[5.2341529444607104,60.291311064711394],[5.2341633302343604,60.291318208884043],[5.2341742641829434,60.291325152882635],[5.2341875355483207,60.291334599166319],[5.2342002035733559,60.29134425304499],[5.2342122713531651,60.291354087640428],[5.2342237208388545,60.291364102440568],[5.2342345339815193,60.291374296933384],[5.2342447138761097,60.291384644240615],[5.2342542605221878,60.291395144362397],[5.2342631208053731,60.291405786802827],[5.2342713318540302,60.291416563626925],[5.2342788596340695,60.291427455891508],[5.2342857041448685,60.29143846359667],[5.2342918674493886,60.291449568823559],[5.2342973325302138,60.29146076210062],[5.2343021004184207,60.29147203446847],[5.2343061731769192,60.291483368008215],[5.2343095136759823,60.291494770655007],[5.2343121621392807,60.291506207595376],[5.2343140994856459,60.291517687276702],[5.2343153097293058,60.291529191267827],[5.234315812981726,60.291540702161996],[5.2343155911934831,60.291552219447048],[5.23431464539562,60.291563734163503],[5.2343129967314015,60.291575219945109],[5.2343106271514515,60.29158667627965],[5.2343075557354535,60.291598094719767],[5.2343037664976118,60.291609456834315],[5.234275425662176,60.291696742330309],[5.2343414066411,60.291719414719999],[5.2344084943966385,60.29174128252869],[5.2344766559239435,60.291762317851934],[5.2344943097668803,60.291748805350188],[5.2345127128656586,60.291735547815207],[5.234531848202824,60.291722535775023],[5.2345516946340558,60.291709795595615],[5.2345608981540712,60.291704879237585],[5.2345705992911284,60.291700201718214],[5.2345807609160735,60.291695770972495],[5.2345913618850792,60.291691613366673],[5.2346023851812351,60.291687719428943],[5.234613773563388,60.291684114501237],[5.2346255450804282,60.291680799095602],[5.2346376254743152,60.291677789082264],[5.2346499956648778,60.291675092908541],[5.2346626386354007,60.291672701102684],[5.234675514161963,60.291670648478231],[5.2346885701621995,60.291668915579798],[5.2347017875560669,60.29166751085463],[5.2347151462318733,60.291666451709553],[5.2347285930755731,60.291665727648606],[5.2347420909584841,60.291665346606997],[5.2347556048153043,60.291665298600975],[5.2347691145343704,60.29166560103738],[5.2347825670016706,60.291666243420345],[5.2347959431372493,60.29166723419727],[5.234809208907425,60.291668554424959],[5.2348223101664368,60.291670202567076],[5.2348352278342727,60.2916721870711],[5.2348479268455304,60.291674497953309],[5.2348603721347411,60.291677125230095],[5.2348725286364193,60.291680058917805],[5.2348843592217174,60.291683306951811],[5.2348958489370681,60.291686841941655],[5.2349136669696206,60.291693289067148],[5.234931111134502,60.291699995244635],[5.2349481463660448,60.291706950490564],[5.2349647546156106,60.29171415429299],[5.234980936914913,60.2917215976926],[5.2349966762468858,60.291729271217974],[5.2350119365140051,60.291737173845085],[5.2350267367965975,60.29174529712671],[5.2350681815856444,60.291778356107493],[5.2351114303213961,60.291810846031737],[5.2351564329869538,60.291842729523616],[5.2352031725678048,60.291873997109796],[5.2352516160633531,60.291904620885937],[5.2353017294410016,60.291934581907071],[5.235324988529193,60.291947718156578],[5.2353489546426575,60.291960532887728],[5.2353736288130497,60.291973017140663],[5.2353989940230905,60.291985161443471],[5.2354250162379872,60.291996946852699],[5.2354516763772017,60.292008381815414],[5.2354789584546539,60.292019447900245],[5.2355068454526279,60.292030135635279],[5.2355353193218317,60.292040444508103],[5.2355643460269592,60.292050355575356],[5.2355939075185125,60.292059868324635],[5.2356239867784229,60.292068973284096],[5.2356545487395412,60.292077660469872],[5.2356855923696877,60.292085938841083],[5.2357170846644374,60.292093780494973],[5.2358545795554683,60.292128215540927],[5.2359934248034277,60.292161304475563],[5.2360524703831794,60.292178332070925],[5.2361123617469012,60.292194619585842],[5.2361730437135021,60.292210174442801],[5.236189767464885,60.292214334174368],[5.2362065118465937,60.292218314714084],[5.2362232562324227,60.292222295251712],[5.2362401811128825,60.292226280906561],[5.2362571266232818,60.292230087369497],[5.2362740721377063,60.292233893830293],[5.2362910279689032,60.292237610694087],[5.2363081642945968,60.292241332674948],[5.2363253109369543,60.292244965058707],[5.2363424678958346,60.292248507845386],[5.236359815661765,60.292251966154119],[5.2363769829407474,60.292255419341494],[5.2363943410266449,60.292258788050866],[5.2364084843099592,60.292261454345478],[5.236411709428638,60.292262067163072],[5.2364292583249377,60.292265351392082],[5.2364466370464511,60.292268540904885],[5.2364642065745102,60.292271645939515],[5.2364817761060012,60.292274750971849],[5.2365171266066062,60.292280697363751],[5.2365325921307315,60.292283203392763],[5.2365525080566409,60.292286374961606],[5.236588100946177,60.292291788884135],[5.2366060830423864,60.292294456163219],[5.2366418976884423,60.292299516810587],[5.2366777432811737,60.29230430866356],[5.2367139808018015,60.292308841959418],[5.2367502492674962,60.292313106460661],[5.2367865383659105,60.292317191762145],[5.2368230492103383,60.292320923792481],[5.2368595806859837,60.292324476622959],[5.2368778670493619,60.292326073844507],[5.2368961534145972,60.292327671063582],[5.2369146202729153,60.292329273398522],[5.2369329272640686,60.292330691422627],[5.2369514147480949,60.292332114562576],[5.2369699125448133,60.292333448104955],[5.2369882401627956,60.29233468693154],[5.237006748273525,60.29233593087384],[5.2370252666965715,60.292337085218605],[5.2370437954317852,60.292338149965836],[5.2370623344790035,60.29233912511549],[5.2370808735274403,60.292340100262592],[5.2370994228876899,60.292340985812118],[5.2371179825595915,60.29234178176408],[5.237136552543026,60.292342488118457],[5.2371551225273567,60.292343194470263],[5.2371737028230037,60.29234381122447],[5.2371922934297901,60.292344338381092],[5.2372108840372942,60.292344865535114],[5.2372294952660114,60.292345213496567],[5.2372481064952332,60.292345561455363],[5.2372667177249221,60.292345909411594],[5.2372853495753446,60.292346078175214],[5.2373039814260585,60.292346246936205],[5.2373226235870511,60.292346326099562],[5.2373410955668334,60.292346310547515],[5.2373597480380703,60.29234630011068],[5.2373784108192307,60.292346200076196],[5.2373970839101975,60.292346010444078],[5.2374155868194157,60.292345726096585],[5.2374342702197731,60.292345446864246],[5.2374529639295835,60.292345078034209],[5.2374561501886561,60.292441707380469],[5.2378064677954033,60.292418741044898],[5.2379448527682548,60.292410529581403],[5.238036830862117,60.29240432819752],[5.2381283086792694,60.292397753018996],[5.2381571665432594,60.292395604823497],[5.2381599964205252,60.292430345590667],[5.2381697134011089,60.292549398133787]]]},"properties":{"OBJECTID":1,"table_name":"KpOmråde_2018","PLANNAVN":"KOMMUNEPLANENS AREALDEL 2018","PLANTYPE":20,"PLANSTAT":3,"PLANBEST":1,"IKRAFT":1560902400000,"LOVREFERANSE":6,"KOMM":4601,"PLANID":"65270000","KUNNGJORINGSDATO":null,"VEDTAKENDELIGPLANDATO":null,"SAKSNR":201418880,"SHAPE.STArea()":563045949.41515589,"SHAPE.STLength()":142998.15472849217}}]
}